TDRS 3                  
1 19548U 88091B   22317.43931162 -.00000292  00000+0  00000+0 0  9999
2 19548  13.6078 350.1605 0038093 327.3632 204.4200  1.00276261112239
HST                     
1 20580U 90037B   22317.26574556  .00003260  00000+0  17830-3 0  9991
2 20580  28.4702 262.3329 0002510 199.9885 306.9151 15.11252743588742
TDRS 5                  
1 21639U 91054B   22317.38841358  .00000091  00000+0  00000+0 0  9993
2 21639  14.2271   3.4829 0023254 351.8401  29.2997  1.00271073114560
TDRS 6                  
1 22314U 93003B   22317.39245039 -.00000288  00000+0  00000+0 0  9994
2 22314  14.1413   6.7404 0008694 147.7699 353.4560  1.00269803109251
TDRS 7                  
1 23613U 95035B   22317.09007637 -.00000193  00000+0  00000+0 0  9996
2 23613  13.9219 357.4439 0024239  56.0483 115.7830  1.00267578100094
ISS (ZARYA)             
1 25544U 98067A   22317.69717593  .00010572  00000+0  19300-3 0  9992
2 25544  51.6437 315.9387 0006970  70.0602 276.0956 15.49982378368368
LANDSAT 7               
1 25682U 99020A   22317.37613506  .00000539  00000+0  12202-3 0  9995
2 25682  97.9614 359.6950 0001452  72.1258 288.0098 14.59844234254296
TERRA                   
1 25994U 99068A   22317.52848311  .00000456  00000+0  10706-3 0  9999
2 25994  98.1223  25.9916 0002360  56.0891  57.2961 14.58912846218210
TDRS 8                  
1 26388U 00034A   22316.74563035 -.00000226  00000+0  00000+0 0  9990
2 26388  10.6012  41.5183 0016533 334.8842  32.9720  1.00279568 82024
TIMED                   
1 26998U 01055B   22317.48791520  .00000974  00000+0  10768-3 0  9990
2 26998  74.0723 342.6859 0001930 245.5628 114.5352 14.88941898135180
TDRS 9                  
1 27389U 02011A   22317.32457659 -.00000278  00000+0  00000+0 0  9995
2 27389   9.3359  59.4481 0024454 292.5884 114.9469  1.00267933 77298
AQUA                    
1 27424U 02022A   22317.54695399  .00000882  00000+0  20430-3 0  9999
2 27424  98.2625 258.1259 0001860  92.8994 325.9750 14.57466880 91900
TDRS 10                 
1 27566U 02055A   22317.56158045  .00000099  00000+0  00000+0 0  9993
2 27566   8.4754  49.1103 0004573 320.7681  73.9026  1.00276223 73088
SORCE                   
1 27651U 03004A   22317.45524135  .00002252  00000+0  24050-3 0  9996
2 27651  39.9940 105.2758 0021313  79.5778 280.7413 14.90387003 75303
AURA                    
1 28376U 04026A   22317.44046883  .00000859  00000+0  20063-3 0  9995
2 28376  98.2246 258.7228 0001347  87.8763 272.2590 14.57128177974928
SWIFT                   
1 28485U 04047A   22317.39961296  .00005603  00000+0  32888-3 0  9997
2 28485  20.5584 344.0775 0010388  30.2624 329.8409 15.07512170986041
THEMIS A                
1 30580U 07004A   22317.13037814 -.00000251  00000+0 -18159-1 0  9993
2 30580  12.9557 329.6730 8362141 196.5654 198.8025  0.87834739 29742
THEMIS D                
1 30797U 07004D   22317.28452125 -.00000303  00000+0  00000+0 0  9996
2 30797   8.8039 318.1333 8316053 211.3803 259.6105  0.87836984 29543
THEMIS E                
1 30798U 07004E   22317.28758814 -.00000332  00000+0  00000+0 0  9993
2 30798   9.8574 333.0437 8309100 198.4286 251.2698  0.87840481 54387
AIM                     
1 31304U 07015A   22317.35816170  .00011809  00000+0  54369-3 0  9998
2 31304  97.8568 242.3436 0003047 195.0722 165.0422 15.20473680853798
FGRST (GLAST)           
1 33053U 08029A   22317.48340014  .00002562  00000+0  12568-3 0  9991
2 33053  25.5820 230.6476 0012196 107.1906 252.9965 15.12680518796286
WISE                    
1 36119U 09071A   22317.07457309  .00008085  00000+0  23533-3 0  9996
2 36119  97.2243 348.5912 0003825 112.9810 247.1838 15.35665293718296
TDRS 11                 
1 39070U 13004A   22317.46176062  .00000089  00000+0  00000+0 0  9999
2 39070   2.8156 350.5694 0003713  66.8476 347.1731  1.00278124 33542
TDRS 12                 
1 39504U 14004A   22317.48759029 -.00000262  00000+0  00000+0 0  9998
2 39504   3.7464 350.0610 0002956 205.4497 351.4571  1.00279628 31123
GPM-CORE                
1 39574U 14009C   22317.55311324  .00023394  00000+0  33119-3 0  9991
2 39574  65.0012  40.7862 0011978 276.8384  83.1399 15.56404233494806
MMS 1                   
1 40482U 15011A   22312.74992292 -.00000402  00000+0  00000+0 0  9995
2 40482  30.2281  93.4276 8849982  65.7177 109.9380  0.28546891 13713
MMS 2                   
1 40483U 15011B   22311.70027015 -.00000274  00000+0  00000+0 0  9990
2 40483  30.2153  93.4598 8848249  65.6945   2.0915  0.28544214 13776
MMS 3                   
1 40484U 15011C   22311.87388126 -.00000296  00000+0  00000+0 0  9996
2 40484  30.2240  93.4227 8846711  65.7056  19.9820  0.28544760 13452
MMS 4                   
1 40485U 15011D   22311.87388126 -.00000295  00000+0  00000+0 0  9996
2 40485  30.2225  93.4941 8847051  65.6498  19.9658  0.28544007 13662
TDRS 13                 
1 42915U 17047A   22317.37507106 -.00000092  00000+0  00000+0 0  9994
2 42915   4.2763 334.9992 0013693 123.1664  77.9743  1.00272830 19199
JPSS-1                  
1 43013U 17073A   22317.43895019  .00000112  00000+0  73949-4 0  9992
2 43013  98.7299 253.7303 0001198  56.7828 303.3463 14.19558942258369
